{"type": "FeatureCollection", "features": [ {"type": "Feature", "properties": {"norad_id": 44476, "name": "INTELSAT 39 (IS-39)", "group": "intelsat", "lat": 0.040110098095113886, "lon": 68.08913307689082, "alt_km": 35786.304264543905, "timestamp": "2025-12-03T19:33:06.647570+00:00", "meta": {"OBJECT_NAME": "INTELSAT 39 (IS-39)", "OBJECT_ID": "2019-049B", "EPOCH": "2025-12-03T10:37:31.211040", "MEAN_MOTION": 1.00270208, "ECCENTRICITY": 8.72e-05, "INCLINATION": 0.017, "RA_OF_ASC_NODE": 317.794, "ARG_OF_PERICENTER": 197.2912, "MEAN_ANOMALY": 138.7759, "EPHEMERIS_TYPE": 0, "CLASSIFICATION_TYPE": "U", "NORAD_CAT_ID": 44476, "ELEMENT_SET_NO": 999, "REV_AT_EPOCH": 2316, "BSTAR": 0, "MEAN_MOTION_DOT": 5.2e-07, "MEAN_MOTION_DDOT": 0}, "tle": {"line1": "1 44476U 19049B   25337.44272235  .00000052  00000+0  00000+0 0  9992", "line2": "2 44476   0.0170 317.7940 0000872 197.2912 138.7759  1.00270208 23166"}}, "geometry": {"type": "Point", "coordinates": [68.08913307689082, 0.040110098095113886]}}, {"type": "Feature", "properties": {"norad_id": 46114, "name": "GALAXY 30 (G-30)", "group": "intelsat", "lat": -0.038881170120954905, "lon": -118.84235665314074, "alt_km": 35775.60566280762, "timestamp": "2025-12-03T19:33:06.647582+00:00", "meta": {"OBJECT_NAME": "GALAXY 30 (G-30)", "OBJECT_ID": "2020-056C", "EPOCH": "2025-12-03T11:13:38.603424", "MEAN_MOTION": 1.00272752, "ECCENTRICITY": 0.0002454, "INCLINATION": 0.0148, "RA_OF_ASC_NODE": 313.4363, "ARG_OF_PERICENTER": 299.3603, "MEAN_ANOMALY": 223.181, "EPHEMERIS_TYPE": 0, "CLASSIFICATION_TYPE": "U", "NORAD_CAT_ID": 46114, "ELEMENT_SET_NO": 999, "REV_AT_EPOCH": 1933, "BSTAR": 0, "MEAN_MOTION_DOT": 5.5e-07, "MEAN_MOTION_DDOT": 0}, "tle": {"line1": "1 46114U 20056C   25337.46780791  .00000055  00000+0  00000+0 0  9999", "line2": "2 46114   0.0148 313.4363 0002454 299.3603 223.1810  1.00272752 19330"}}, "geometry": {"type": "Point", "coordinates": [-118.84235665314074, -0.038881170120954905]}}, {"type": "Feature", "properties": {"norad_id": 54026, "name": "GALAXY 33 (G-33)", "group": "intelsat", "lat": -0.03842246746532897, "lon": -126.84041598030798, "alt_km": 35777.79802464813, "timestamp": "2025-12-03T19:33:06.647594+00:00", "meta": {"OBJECT_NAME": "GALAXY 33 (G-33)", "OBJECT_ID": "2022-128A", "EPOCH": "2025-12-02T16:34:35.368896", "MEAN_MOTION": 1.00272458, "ECCENTRICITY": 0.0001946, "INCLINATION": 0.0146, "RA_OF_ASC_NODE": 335.983, "ARG_OF_PERICENTER": 271.3406, "MEAN_ANOMALY": 300.1238, "EPHEMERIS_TYPE": 0, "CLASSIFICATION_TYPE": "U", "NORAD_CAT_ID": 54026, "ELEMENT_SET_NO": 999, "REV_AT_EPOCH": 1177, "BSTAR": 0, "MEAN_MOTION_DOT": 9.9e-07, "MEAN_MOTION_DDOT": 0}, "tle": {"line1": "1 54026U 22128A   25336.69068714  .00000099  00000+0  00000+0 0  9998", "line2": "2 54026   0.0146 335.9830 0001946 271.3406 300.1238  1.00272458 11776"}}, "geometry": {"type": "Point", "coordinates": [-126.84041598030798, -0.03842246746532897]}}, {"type": "Feature", "properties": {"norad_id": 54027, "name": "GALAXY 34 (G-34)", "group": "intelsat", "lat": -0.0381395424544091, "lon": -122.83901616839212, "alt_km": 35779.70672669779, "timestamp": "2025-12-03T19:33:06.647606+00:00", "meta": {"OBJECT_NAME": "GALAXY 34 (G-34)", "OBJECT_ID": "2022-128B", "EPOCH": "2025-12-03T04:34:54.578208", "MEAN_MOTION": 1.00273357, "ECCENTRICITY": 0.0001417, "INCLINATION": 0.0131, "RA_OF_ASC_NODE": 329.5107, "ARG_OF_PERICENTER": 278.9008, "MEAN_ANOMALY": 123.608, "EPHEMERIS_TYPE": 0, "CLASSIFICATION_TYPE": "U", "NORAD_CAT_ID": 54027, "ELEMENT_SET_NO": 999, "REV_AT_EPOCH": 1194, "BSTAR": 0, "MEAN_MOTION_DOT": 7.8e-07, "MEAN_MOTION_DDOT": 0}, "tle": {"line1": "1 54027U 22128B   25337.19090947  .00000078  00000+0  00000+0 0  9995", "line2": "2 54027   0.0131 329.5107 0001417 278.9008 123.6080  1.00273357 11942"}}, "geometry": {"type": "Point", "coordinates": [-122.83901616839212, -0.0381395424544091]}}, {"type": "Feature", "properties": {"norad_id": 54243, "name": "GALAXY 31 (G-31)", "group": "intelsat", "lat": -0.033740388159286476, "lon": -114.87531736983934, "alt_km": 35777.80021640193, "timestamp": "2025-12-03T19:33:06.647617+00:00", "meta": {"OBJECT_NAME": "GALAXY 31 (G-31)", "OBJECT_ID": "2022-153A", "EPOCH": "2025-12-03T09:45:21.206880", "MEAN_MOTION": 1.00271933, "ECCENTRICITY": 0.0002102, "INCLINATION": 0.0123, "RA_OF_ASC_NODE": 353.3505, "ARG_OF_PERICENTER": 274.41, "MEAN_ANOMALY": 190.0557, "EPHEMERIS_TYPE": 0, "CLASSIFICATION_TYPE": "U", "NORAD_CAT_ID": 54243, "ELEMENT_SET_NO": 999, "REV_AT_EPOCH": 517, "BSTAR": 0, "MEAN_MOTION_DOT": 0, "MEAN_MOTION_DDOT": 0}, "tle": {"line1": "1 54243U 22153A   25337.40649545  .00000000  00000+0  00000+0 0  9996", "line2": "2 54243   0.0123 353.3505 0002102 274.4100 190.0557  1.00271933  5179"}}, "geometry": {"type": "Point", "coordinates": [-114.87531736983934, -0.033740388159286476]}}, {"type": "Feature", "properties": {"norad_id": 54244, "name": "GALAXY 32 (G-32)", "group": "intelsat", "lat": -0.026416368597522107, "lon": -84.85960492905468, "alt_km": 35777.16552460428, "timestamp": "2025-12-03T19:33:06.647629+00:00", "meta": {"OBJECT_NAME": "GALAXY 32 (G-32)", "OBJECT_ID": "2022-153B", "EPOCH": "2025-12-03T09:53:57.883200", "MEAN_MOTION": 1.00270465, "ECCENTRICITY": 0.0002527, "INCLINATION": 0.0104, "RA_OF_ASC_NODE": 325.3204, "ARG_OF_PERICENTER": 338.9424, "MEAN_ANOMALY": 185.7348, "EPHEMERIS_TYPE": 0, "CLASSIFICATION_TYPE": "U", "NORAD_CAT_ID": 54244, "ELEMENT_SET_NO": 999, "REV_AT_EPOCH": 1118, "BSTAR": 0, "MEAN_MOTION_DOT": -1.56e-06, "MEAN_MOTION_DDOT": 0}, "tle": {"line1": "1 54244U 22153B   25337.41247550 -.00000156  00000+0  00000+0 0  9991", "line2": "2 54244   0.0104 325.3204 0002527 338.9424 185.7348  1.00270465 11186"}}, "geometry": {"type": "Point", "coordinates": [-84.85960492905468, -0.026416368597522107]}}, {"type": "Feature", "properties": {"norad_id": 54741, "name": "GALAXY 35 (G-35)", "group": "intelsat", "lat": -0.03285073067676387, "lon": -86.96337316539919, "alt_km": 35774.99577106638, "timestamp": "2025-12-03T19:33:06.647641+00:00", "meta": {"OBJECT_NAME": "GALAXY 35 (G-35)", "OBJECT_ID": "2022-170A", "EPOCH": "2025-12-03T08:10:37.782048", "MEAN_MOTION": 1.00269334, "ECCENTRICITY": 0.0002843, "INCLINATION": 0.0154, "RA_OF_ASC_NODE": 333.7504, "ARG_OF_PERICENTER": 287.8383, "MEAN_ANOMALY": 200.3824, "EPHEMERIS_TYPE": 0, "CLASSIFICATION_TYPE": "U", "NORAD_CAT_ID": 54741, "ELEMENT_SET_NO": 999, "REV_AT_EPOCH": 1093, "BSTAR": 0, "MEAN_MOTION_DOT": 0, "MEAN_MOTION_DDOT": 0}, "tle": {"line1": "1 54741U 22170A   25337.34071507  .00000000  00000+0  00000+0 0  9998", "line2": "2 54741   0.0154 333.7504 0002843 287.8383 200.3824  1.00269334 10934"}}, "geometry": {"type": "Point", "coordinates": [-86.96337316539919, -0.03285073067676387]}}, {"type": "Feature", "properties": {"norad_id": 54742, "name": "GALAXY 36 (G-36)", "group": "intelsat", "lat": -0.006266304219684214, "lon": -82.84263862675155, "alt_km": 35784.244507677286, "timestamp": "2025-12-03T19:33:06.647652+00:00", "meta": {"OBJECT_NAME": "GALAXY 36 (G-36)", "OBJECT_ID": "2022-170B", "EPOCH": "2025-12-03T09:54:27.836352", "MEAN_MOTION": 1.0027039, "ECCENTRICITY": 6.02e-05, "INCLINATION": 0.016, "RA_OF_ASC_NODE": 263.9735, "ARG_OF_PERICENTER": 345.2234, "MEAN_ANOMALY": 242.9257, "EPHEMERIS_TYPE": 0, "CLASSIFICATION_TYPE": "U", "NORAD_CAT_ID": 54742, "ELEMENT_SET_NO": 999, "REV_AT_EPOCH": 1081, "BSTAR": 0, "MEAN_MOTION_DOT": -1.67e-06, "MEAN_MOTION_DDOT": 0}, "tle": {"line1": "1 54742U 22170B   25337.41282218 -.00000167  00000+0  00000+0 0  9995", "line2": "2 54742   0.0160 263.9735 0000602 345.2234 242.9257  1.00270390 10810"}}, "geometry": {"type": "Point", "coordinates": [-82.84263862675155, -0.006266304219684214]}}, {"type": "Feature", "properties": {"norad_id": 57493, "name": "GALAXY 37 (G-37)", "group": "intelsat", "lat": -0.03695402208125068, "lon": -120.83983571177954, "alt_km": 35775.81703169228, "timestamp": "2025-12-03T19:33:06.647663+00:00", "meta": {"OBJECT_NAME": "GALAXY 37 (G-37)", "OBJECT_ID": "2023-112A", "EPOCH": "2025-12-03T11:17:38.568192", "MEAN_MOTION": 1.00273018, "ECCENTRICITY": 0.0002478, "INCLINATION": 0.0152, "RA_OF_ASC_NODE": 301.196, "ARG_OF_PERICENTER": 317.5121, "MEAN_ANOMALY": 216.2781, "EPHEMERIS_TYPE": 0, "CLASSIFICATION_TYPE": "U", "NORAD_CAT_ID": 57493, "ELEMENT_SET_NO": 999, "REV_AT_EPOCH": 858, "BSTAR": 0, "MEAN_MOTION_DOT": 6.6e-07, "MEAN_MOTION_DDOT": 0}, "tle": {"line1": "1 57493U 23112A   25337.47058528  .00000066  00000+0  00000+0 0  9996", "line2": "2 57493   0.0152 301.1960 0002478 317.5121 216.2781  1.00273018  8589"}}, "geometry": {"type": "Point", "coordinates": [-120.83983571177954, -0.03695402208125068]}}]}